start=new Date('2022-11-22T00:00:00.000Z').valueOf();
sats=[{"OBJECT_ID":"2019-074AK","APOAPSIS":"548.494","TLE_LINE1":"1 44746U 19074AK  22325.82926474 -.00001093  00000-0 -54465-4 0  9995","ECCENTRICITY":"0.00018060","RCS_SIZE":"LARGE","PERIOD":"95.593","PERIAPSIS":"545.992","FILE":"3666658","COUNTRY_CODE":"US","EPOCH":"2022-11-21T19:54:08.473536","MEAN_ANOMALY":"302.4479","TIME_SYSTEM":"UTC","CENTER_NAME":"EARTH","REF_FRAME":"TEME","GP_ID":"218429757","OBJECT_NAME":"STARLINK-1041","SEMIMAJOR_AXIS":"6925.378","MEAN_MOTION_DOT":"-0.00001093","LAUNCH_DATE":"2019-11-11","INCLINATION":"53.0541","MEAN_MOTION_DDOT":"0.0000000000000","ARG_OF_PERICENTER":"57.6685","CLASSIFICATION_TYPE":"U","NORAD_CAT_ID":"44746","BSTAR":"-0.00005446500000","ELEMENT_SET_NO":"999","RA_OF_ASC_NODE":"230.9690","MEAN_MOTION":"15.06390388","EPHEMERIS_TYPE":"0","TLE_LINE2":"2 44746  53.0541 230.9690 0001806  57.6685 302.4479 15.06390388166742","REV_AT_EPOCH":"16674","DECAY_DATE":null,"SITE":"AFETR","OBJECT_TYPE":"PAYLOAD","MEAN_ELEMENT_THEORY":"SGP4"},{"BSTAR":"0.00001817000000","NORAD_CAT_ID":"44747","ELEMENT_SET_NO":"999","RA_OF_ASC_NODE":"231.1246","OBJECT_NAME":"STARLINK-1042","LAUNCH_DATE":"2019-11-11","MEAN_MOTION_DOT":"-0.00000011","SEMIMAJOR_AXIS":"6925.307","INCLINATION":"53.0541","CLASSIFICATION_TYPE":"U","ARG_OF_PERICENTER":"57.1577","MEAN_MOTION_DDOT":"0.0000000000000","FILE":"3666658","COUNTRY_CODE":"US","EPOCH":"2022-11-21T19:01:02.688672","MEAN_ANOMALY":"302.9583","TIME_SYSTEM":"UTC","CENTER_NAME":"EARTH","REF_FRAME":"TEME","GP_ID":"218429507","TLE_LINE1":"1 44747U 19074AL  22325.79239223 -.00000011  00000-0  18170-4 0  9992","APOAPSIS":"548.402","OBJECT_ID":"2019-074AL","PERIAPSIS":"545.942","ECCENTRICITY":"0.00017760","RCS_SIZE":"LARGE","PERIOD":"95.591","MEAN_ELEMENT_THEORY":"SGP4","OBJECT_TYPE":"PAYLOAD","TLE_LINE2":"2 44747  53.0541 231.1246 0001776  57.1577 302.9583 15.06413635166746","REV_AT_EPOCH":"16674","SITE":"AFETR","DECAY_DATE":null,"MEAN_MOTION":"15.06413635","EPHEMERIS_TYPE":"0"},{"EPHEMERIS_TYPE":"0","MEAN_MOTION":"15.06396454","OBJECT_TYPE":"PAYLOAD","MEAN_ELEMENT_THEORY":"SGP4","DECAY_DATE":null,"SITE":"AFETR","REV_AT_EPOCH":"16664","TLE_LINE2":"2 44748  53.0553 233.9785 0001844  60.5489 299.5684 15.06396454166645","REF_FRAME":"TEME","GP_ID":"218395786","TIME_SYSTEM":"UTC","CENTER_NAME":"EARTH","EPOCH":"2022-11-21T03:48:07.300512","COUNTRY_CODE":"US","MEAN_ANOMALY":"299.5684","FILE":"3666297","PERIOD":"95.592","RCS_SIZE":"LARGE","ECCENTRICITY":"0.00018440","PERIAPSIS":"545.947","OBJECT_ID":"2019-074AM","APOAPSIS":"548.501","TLE_LINE1":"1 44748U 19074AM  22325.15841783 -.00000264  00000-0  11556-5 0  9995","RA_OF_ASC_NODE":"233.9785","ELEMENT_SET_NO":"999","NORAD_CAT_ID":"44748","BSTAR":"0.00000115560000","ARG_OF_PERICENTER":"60.5489","MEAN_MOTION_DDOT":"0.0000000000000","CLASSIFICATION_TYPE":"U","INCLINATION":"53.0553","SEMIMAJOR_AXIS":"6925.359","MEAN_MOTION_DOT":"-0.00000264","LAUNCH_DATE":"2019-11-11","OBJECT_NAME":"STARLINK-1043"},{"APOAPSIS":"548.443","TLE_LINE1":"1 44751U 19074AQ  22325.10681545 -.00000369  00000-0 -59001-5 0  9996","OBJECT_ID":"2019-074AQ","PERIAPSIS":"546.005","PERIOD":"95.592","RCS_SIZE":"LARGE","ECCENTRICITY":"0.00017600","CENTER_NAME":"EARTH","TIME_SYSTEM":"UTC","REF_FRAME":"TEME","GP_ID":"218396535","FILE":"3666297","COUNTRY_CODE":"US","MEAN_ANOMALY":"310.0551","EPOCH":"2022-11-21T02:33:48.854880","INCLINATION":"53.0553","CLASSIFICATION_TYPE":"U","ARG_OF_PERICENTER":"50.0592","MEAN_MOTION_DDOT":"0.0000000000000","OBJECT_NAME":"STARLINK-1046","LAUNCH_DATE":"2019-11-11","SEMIMAJOR_AXIS":"6925.359","MEAN_MOTION_DOT":"-0.00000369","RA_OF_ASC_NODE":"234.2144","BSTAR":"-0.00000590010000","NORAD_CAT_ID":"44751","ELEMENT_SET_NO":"999","EPHEMERIS_TYPE":"0","MEAN_MOTION":"15.06396514","REV_AT_EPOCH":"16663","SITE":"AFETR","DECAY_DATE":null,"TLE_LINE2":"2 44751  53.0553 234.2144 0001760  50.0592 310.0551 15.06396514166636","MEAN_ELEMENT_THEORY":"SGP4","OBJECT_TYPE":"PAYLOAD"},{"MEAN_MOTION":"15.06387405","EPHEMERIS_TYPE":"0","TLE_LINE2":"2 44752  53.0534 210.8426 0001924  54.6426 305.4743 15.06387405167021","SITE":"AFETR","DECAY_DATE":null,"REV_AT_EPOCH":"16702","MEAN_ELEMENT_THEORY":"SGP4","OBJECT_TYPE":"PAYLOAD","PERIAPSIS":"545.920","RCS_SIZE":"LARGE","PERIOD":"95.593","ECCENTRICITY":"0.00019240","APOAPSIS":"548.585","TLE_LINE1":"1 44752U 19074AR  22325.85690697  .00000330  00000-0  41051-4 0  9998","OBJECT_ID":"2019-074AR","COUNTRY_CODE":"US","EPOCH":"2022-11-21T20:33:56.762208","MEAN_ANOMALY":"305.4743","FILE":"3666658","REF_FRAME":"TEME","GP_ID":"218429257","TIME_SYSTEM":"UTC","CENTER_NAME":"EARTH","LAUNCH_DATE":"2019-11-11","SEMIMAJOR_AXIS":"6925.387","MEAN_MOTION_DOT":"0.00000330","OBJECT_NAME":"STARLINK-1047","CLASSIFICATION_TYPE":"U","MEAN_MOTION_DDOT":"0.0000000000000","ARG_OF_PERICENTER":"54.6426","INCLINATION":"53.0534","ELEMENT_SET_NO":"999","BSTAR":"0.00004105100000","NORAD_CAT_ID":"44752","RA_OF_ASC_NODE":"210.8426"},{"REV_AT_EPOCH":"16731","SITE":"AFETR","DECAY_DATE":null,"TLE_LINE2":"2 44753  53.0549 190.5214 0001663  65.8830 294.2333 15.06397641167315","MEAN_ELEMENT_THEORY":"SGP4","OBJECT_TYPE":"PAYLOAD","EPHEMERIS_TYPE":"0","MEAN_MOTION":"15.06397641","INCLINATION":"53.0549","CLASSIFICATION_TYPE":"U","ARG_OF_PERICENTER":"65.8830","MEAN_MOTION_DDOT":"0.0000000000000","OBJECT_NAME":"STARLINK-1048","LAUNCH_DATE":"2019-11-11","SEMIMAJOR_AXIS":"6925.356","MEAN_MOTION_DOT":"-0.00000975","RA_OF_ASC_NODE":"190.5214","BSTAR":"-0.00004659200000","NORAD_CAT_ID":"44753","ELEMENT_SET_NO":"999","TLE_LINE1":"1 44753U 19074AS  22325.92878536 -.00000975  00000-0 -46592-4 0  9999","APOAPSIS":"548.372","OBJECT_ID":"2019-074AS","PERIAPSIS":"546.069","RCS_SIZE":"LARGE","PERIOD":"95.592","ECCENTRICITY":"0.00016630","TIME_SYSTEM":"UTC","CENTER_NAME":"EARTH","REF_FRAME":"TEME","GP_ID":"218430008","FILE":"3666658","COUNTRY_CODE":"US","EPOCH":"2022-11-21T22:17:27.055104","MEAN_ANOMALY":"294.2333"},{"MEAN_ELEMENT_THEORY":"SGP4","OBJECT_TYPE":"PAYLOAD","SITE":"AFETR","DECAY_DATE":null,"REV_AT_EPOCH":"16729","TLE_LINE2":"2 44754  53.0543 191.0981 0001885  50.6100 309.5055 15.06389390167295","EPHEMERIS_TYPE":"0","MEAN_MOTION":"15.06389390","RA_OF_ASC_NODE":"191.0981","ELEMENT_SET_NO":"999","BSTAR":"0.00012120000000","NORAD_CAT_ID":"44754","CLASSIFICATION_TYPE":"U","ARG_OF_PERICENTER":"50.6100","MEAN_MOTION_DDOT":"0.0000000000000","INCLINATION":"53.0543","LAUNCH_DATE":"2019-11-11","MEAN_MOTION_DOT":"0.00001524","SEMIMAJOR_AXIS":"6925.381","OBJECT_NAME":"STARLINK-1049","GP_ID":"218430259","REF_FRAME":"TEME","CENTER_NAME":"EARTH","TIME_SYSTEM":"UTC","COUNTRY_CODE":"US","MEAN_ANOMALY":"309.5055","EPOCH":"2022-11-21T19:11:40.103808","FILE":"3666658","PERIAPSIS":"545.941","PERIOD":"95.593","RCS_SIZE":"LARGE","ECCENTRICITY":"0.00018850","APOAPSIS":"548.552","TLE_LINE1":"1 44754U 19074AT  22325.79976972  .00001524  00000-0  12120-3 0  9996","OBJECT_ID":"2019-074AT"},{"MEAN_MOTION":"15.06394268","EPHEMERIS_TYPE":"0","TLE_LINE2":"2 44757  53.0544 211.6884 0001593  71.2957 288.8205 15.06394268166997","SITE":"AFETR","DECAY_DATE":null,"REV_AT_EPOCH":"16699","MEAN_ELEMENT_THEORY":"SGP4","OBJECT_TYPE":"PAYLOAD","PERIAPSIS":"546.128","RCS_SIZE":"LARGE","ECCENTRICITY":"0.00015930","PERIOD":"95.593","APOAPSIS":"548.334","TLE_LINE1":"1 44757U 19074AW  22325.66892256  .00000084  00000-0  24547-4 0  9994","OBJECT_ID":"2019-074AW","COUNTRY_CODE":"US","MEAN_ANOMALY":"288.8205","EPOCH":"2022-11-21T16:03:14.909184","FILE":"3666658","GP_ID":"218431006","REF_FRAME":"TEME","CENTER_NAME":"EARTH","TIME_SYSTEM":"UTC","LAUNCH_DATE":"2019-11-11","SEMIMAJOR_AXIS":"6925.366","MEAN_MOTION_DOT":"0.00000084","OBJECT_NAME":"STARLINK-1052","CLASSIFICATION_TYPE":"U","MEAN_MOTION_DDOT":"0.0000000000000","ARG_OF_PERICENTER":"71.2957","INCLINATION":"53.0544","ELEMENT_SET_NO":"999","BSTAR":"0.00002454700000","NORAD_CAT_ID":"44757","RA_OF_ASC_NODE":"211.6884"},{"EPHEMERIS_TYPE":"0","MEAN_MOTION":"15.06398904","SITE":"AFETR","DECAY_DATE":null,"REV_AT_EPOCH":"16673","TLE_LINE2":"2 44758  53.0542 231.3920 0001244  82.4575 277.6555 15.06398904166736","MEAN_ELEMENT_THEORY":"SGP4","OBJECT_TYPE":"PAYLOAD","PERIAPSIS":"546.355","RCS_SIZE":"LARGE","PERIOD":"95.592","ECCENTRICITY":"0.00012440","TLE_LINE1":"1 44758U 19074AX  22325.75186123  .00000612  00000-0  59999-4 0  9990","APOAPSIS":"548.078","OBJECT_ID":"2019-074AX","REF_FRAME":"TEME","GP_ID":"218429758","TIME_SYSTEM":"UTC","CENTER_NAME":"EARTH","COUNTRY_CODE":"US","MEAN_ANOMALY":"277.6555","EPOCH":"2022-11-21T18:02:40.810272","FILE":"3666658","CLASSIFICATION_TYPE":"U","ARG_OF_PERICENTER":"82.4575","MEAN_MOTION_DDOT":"0.0000000000000","INCLINATION":"53.0542","LAUNCH_DATE":"2019-11-11","SEMIMAJOR_AXIS":"6925.352","MEAN_MOTION_DOT":"0.00000612","OBJECT_NAME":"STARLINK-1053","RA_OF_ASC_NODE":"231.3920","ELEMENT_SET_NO":"999","BSTAR":"0.00005999900000","NORAD_CAT_ID":"44758"},{"ELEMENT_SET_NO":"999","BSTAR":"-0.00019416000000","NORAD_CAT_ID":"44759","RA_OF_ASC_NODE":"231.3924","LAUNCH_DATE":"2019-11-11","MEAN_MOTION_DOT":"-0.00003173","SEMIMAJOR_AXIS":"6925.319","OBJECT_NAME":"STARLINK-1054","CLASSIFICATION_TYPE":"U","ARG_OF_PERICENTER":"74.3070","MEAN_MOTION_DDOT":"0.0000000000000","INCLINATION":"53.0571","COUNTRY_CODE":"US","MEAN_ANOMALY":"285.8073","EPOCH":"2022-11-21T17:36:07.402464","FILE":"3666658","REF_FRAME":"TEME","GP_ID":"218429508","TIME_SYSTEM":"UTC","CENTER_NAME":"EARTH","PERIAPSIS":"546.217","RCS_SIZE":"LARGE","PERIOD":"95.592","ECCENTRICITY":"0.00013970","TLE_LINE1":"1 44759U 19074AY  22325.73341901 -.00003173  00000-0 -19416-3 0  9992","APOAPSIS":"548.152","OBJECT_ID":"2019-074AY","MEAN_ELEMENT_THEORY":"SGP4","OBJECT_TYPE":"PAYLOAD","TLE_LINE2":"2 44759  53.0571 231.3924 0001397  74.3070 285.8073 15.06409555164371","SITE":"AFETR","DECAY_DATE":null,"REV_AT_EPOCH":"16437","MEAN_MOTION":"15.06409555","EPHEMERIS_TYPE":"0"}];
